{"type":"FeatureCollection","features":[{"type":"Feature","properties":{},"geometry":{"type":"Polygon","coordinates":[[[-94.22258,36.416078],[-94.173209,36.440947],[-94.172525,36.499126],[-94.266207,36.498796],[-94.257591,36.485932],[-94.2513,36.484173],[-94.24706,36.475266],[-94.244052,36.471307],[-94.242821,36.469767],[-94.241863,36.466797],[-94.244462,36.462728],[-94.244872,36.459098],[-94.241727,36.451508],[-94.239402,36.448648],[-94.238444,36.441167],[-94.237077,36.437756],[-94.233247,36.433355],[-94.230649,36.428844],[-94.225452,36.425543],[-94.22299,36.423122],[-94.22258,36.416078]]]}}]}