{"type":"FeatureCollection","features":[{"type":"Feature","properties":{},"geometry":{"type":"Polygon","coordinates":[[[-94.587183,38.875406],[-94.576214,38.874837],[-94.57582,38.8892],[-94.578464,38.889331],[-94.57582,38.894454],[-94.573514,38.896293],[-94.571601,38.896511],[-94.571038,38.90356],[-94.561701,38.903253],[-94.561026,38.910388],[-94.567551,38.910782],[-94.56772,38.913978],[-94.569182,38.916035],[-94.56682,38.920936],[-94.566201,38.925007],[-94.562882,38.93052],[-94.555288,38.928551],[-94.554725,38.938834],[-94.559282,38.93914],[-94.558832,38.945266],[-94.559563,38.945791],[-94.559338,38.946797],[-94.557763,38.947147],[-94.555907,38.947322],[-94.555794,38.948984],[-94.554275,38.949028],[-94.553938,38.951478],[-94.552532,38.95174],[-94.552307,38.953928],[-94.554219,38.954321],[-94.553882,38.956159],[-94.556919,38.957777],[-94.553938,38.959264],[-94.553713,38.961058],[-94.555963,38.962457],[-94.548088,38.969018],[-94.54595,38.968668],[-94.5464,38.97396],[-94.550338,38.971948],[-94.550281,38.968974],[-94.554838,38.966919],[-94.557257,38.964382],[-94.559057,38.963157],[-94.559957,38.95922],[-94.560688,38.956377],[-94.562376,38.954671],[-94.563501,38.952353],[-94.564682,38.950515],[-94.56727,38.940541],[-94.569126,38.934806],[-94.571995,38.929993],[-94.573289,38.92553],[-94.574414,38.915464],[-94.576832,38.91113],[-94.58032,38.906666],[-94.581558,38.903776],[-94.582233,38.900318],[-94.582514,38.897648],[-94.582908,38.894452],[-94.583245,38.891562],[-94.584089,38.889592],[-94.586339,38.88587],[-94.587183,38.875406]]]}}]}