{"type":"FeatureCollection","features":[{"type":"Feature","properties":{},"geometry":{"type":"Polygon","coordinates":[[[-94.223415,36.416098],[-94.221896,36.415748],[-94.223127,36.422682],[-94.226136,36.425873],[-94.230375,36.428514],[-94.233247,36.432255],[-94.23694,36.436656],[-94.238718,36.440837],[-94.240085,36.448758],[-94.242274,36.450958],[-94.245009,36.457668],[-94.245419,36.460638],[-94.242547,36.468007],[-94.244462,36.471087],[-94.247881,36.473616],[-94.249126,36.476715],[-94.253229,36.483752],[-94.259246,36.485732],[-94.266358,36.497276],[-94.269367,36.499255],[-94.299044,36.499255],[-94.312857,36.476715],[-94.314224,36.441627],[-94.297403,36.418079],[-94.23586,36.417088],[-94.223415,36.416098]]]}}]}