{"type":"FeatureCollection","features":[{"type":"Feature","properties":{},"geometry":{"type":"Polygon","coordinates":[[[-93.669477,41.680387],[-93.675952,41.680336],[-93.675987,41.679094],[-93.675087,41.677543],[-93.67384,41.676922],[-93.673425,41.672655],[-93.670793,41.672526],[-93.670724,41.669577],[-93.671719,41.666154],[-93.671357,41.663699],[-93.671689,41.662482],[-93.671809,41.660905],[-93.671448,41.658788],[-93.671568,41.653246],[-93.68185,41.653359],[-93.687578,41.653291],[-93.687217,41.652683],[-93.681669,41.652661],[-93.66801,41.65212],[-93.665431,41.656988],[-93.665793,41.658835],[-93.670526,41.661313],[-93.670617,41.664264],[-93.66727,41.666179],[-93.666878,41.66789],[-93.670014,41.672643],[-93.668084,41.67566],[-93.667843,41.677372],[-93.668476,41.679421],[-93.669477,41.680387]]]}}]}